CSS (TIANHE)            
1 48274U 21035A   24275.54649887  .00068745  00000+0  72037-3 0  9998
2 48274  41.4663 154.5397 0003276  76.3758 283.7447 15.63444448195732
